ESEO                    
1 43792U 18099AL  26068.65529582  .00002831  00000+0  20935-3 0  9991
2 43792  97.4113 110.2601 0011063 317.6000  42.4371 15.03914518396849
STARLINK-35328          
1 65652U 25211A   26068.72501779  .00013838  00000+0  96052-3 0  9992
2 65652  97.6041 114.0452 0001043  76.5947 283.5396 15.05684601 27041
